{
  "type": "FeatureCollection",
  "features": [
    {
      "type": "Feature",
      "properties": {
        "id": "valparaiso",
        "name": "Valparaíso",
        "days": "Lunes a Viernes",
        "zone": "Costa"
      },
      "geometry": {
        "type": "Polygon",
        "coordinates": [
          [
            [
              -71.589,
              -33.0303
            ],
            [
              -71.5437,
              -33.1044
            ],
            [
              -71.5033,
              -33.0956
            ],
            [
              -71.4692,
              -33.1537
            ],
            [
              -71.3867,
              -33.1805
            ],
            [
              -71.3963,
              -33.2015
            ],
            [
              -71.5365,
              -33.2138
            ],
            [
              -71.6228,
              -33.1589
            ],
            [
              -71.7061,
              -33.1532
            ],
            [
              -71.7456,
              -33.0996
            ],
            [
              -71.6664,
              -33.0977
            ],
            [
              -71.6468,
              -33.0202
            ],
            [
              -71.6199,
              -33.0427
            ],
            [
              -71.589,
              -33.0303
            ]
          ]
        ]
      }
    },
    {
      "type": "Feature",
      "properties": {
        "id": "vina-del-mar",
        "name": "Viña del Mar",
        "days": "Lunes a Viernes",
        "zone": "Costa"
      },
      "geometry": {
        "type": "Polygon",
        "coordinates": [
          [
            [
              -71.5491,
              -32.948
            ],
            [
              -71.5472,
              -32.9452
            ],
            [
              -71.5122,
              -32.9587
            ],
            [
              -71.4427,
              -33.002
            ],
            [
              -71.4843,
              -33.0349
            ],
            [
              -71.4697,
              -33.066
            ],
            [
              -71.4925,
              -33.1044
            ],
            [
              -71.5437,
              -33.1044
            ],
            [
              -71.587,
              -33.0284
            ],
            [
              -71.552,
              -33.0077
            ],
            [
              -71.5491,
              -32.948
            ]
          ]
        ]
      }
    },
    {
      "type": "Feature",
      "properties": {
        "id": "concon",
        "name": "Concón",
        "days": "Lunes a Viernes",
        "zone": "Costa"
      },
      "geometry": {
        "type": "Polygon",
        "coordinates": [
          [
            [
              -71.5076,
              -32.9157
            ],
            [
              -71.4083,
              -32.9351
            ],
            [
              -71.3872,
              -32.9702
            ],
            [
              -71.4427,
              -33.002
            ],
            [
              -71.5545,
              -32.9421
            ],
            [
              -71.5076,
              -32.9157
            ]
          ]
        ]
      }
    },
    {
      "type": "Feature",
      "properties": {
        "id": "quilpue",
        "name": "Quilpué",
        "days": "Lunes a Viernes",
        "zone": "Marga Marga"
      },
      "geometry": {
        "type": "Polygon",
        "coordinates": [
          [
            [
              -71.4306,
              -33.0022
            ],
            [
              -71.3991,
              -33.0132
            ],
            [
              -71.4009,
              -33.0676
            ],
            [
              -71.3589,
              -33.0981
            ],
            [
              -71.2673,
              -33.1166
            ],
            [
              -71.1976,
              -33.1614
            ],
            [
              -71.0291,
              -33.084
            ],
            [
              -70.9969,
              -33.1975
            ],
            [
              -71.0279,
              -33.2166
            ],
            [
              -71.0569,
              -33.2044
            ],
            [
              -71.072,
              -33.2302
            ],
            [
              -71.1894,
              -33.2267
            ],
            [
              -71.2256,
              -33.2465
            ],
            [
              -71.3459,
              -33.2042
            ],
            [
              -71.3675,
              -33.1757
            ],
            [
              -71.4639,
              -33.1563
            ],
            [
              -71.489,
              -33.054
            ],
            [
              -71.4306,
              -33.0022
            ]
          ]
        ]
      }
    },
    {
      "type": "Feature",
      "properties": {
        "id": "villa-alemana",
        "name": "Villa Alemana",
        "days": "Lunes a Viernes",
        "zone": "Marga Marga"
      },
      "geometry": {
        "type": "Polygon",
        "coordinates": [
          [
            [
              -71.3983,
              -33.0462
            ],
            [
              -71.3991,
              -33.0132
            ],
            [
              -71.3308,
              -33.0446
            ],
            [
              -71.2954,
              -33.0114
            ],
            [
              -71.2598,
              -33.1075
            ],
            [
              -71.3031,
              -33.1209
            ],
            [
              -71.3585,
              -33.0983
            ],
            [
              -71.3983,
              -33.0462
            ]
          ]
        ]
      }
    },
    {
      "type": "Feature",
      "properties": {
        "id": "limache",
        "name": "Limache",
        "days": "Lunes a Viernes",
        "zone": "Marga Marga"
      },
      "geometry": {
        "type": "Polygon",
        "coordinates": [
          [
            [
              -71.439,
              -32.9225
            ],
            [
              -71.3739,
              -32.918
            ],
            [
              -71.3317,
              -32.9517
            ],
            [
              -71.2172,
              -32.9731
            ],
            [
              -71.1334,
              -33.1379
            ],
            [
              -71.1957,
              -33.1616
            ],
            [
              -71.2365,
              -33.1439
            ],
            [
              -71.2922,
              -33.0645
            ],
            [
              -71.2954,
              -33.0114
            ],
            [
              -71.3308,
              -33.0446
            ],
            [
              -71.4333,
              -33.0012
            ],
            [
              -71.3871,
              -32.9699
            ],
            [
              -71.439,
              -32.9225
            ]
          ]
        ]
      }
    },
    {
      "type": "Feature",
      "properties": {
        "id": "quillota",
        "name": "Quillota",
        "days": "Lunes a Viernes",
        "zone": "Interior"
      },
      "geometry": {
        "type": "Polygon",
        "coordinates": [
          [
            [
              -71.2962,
              -32.8312
            ],
            [
              -71.1454,
              -32.8679
            ],
            [
              -71.1519,
              -32.9295
            ],
            [
              -71.1195,
              -32.9546
            ],
            [
              -71.2453,
              -32.9738
            ],
            [
              -71.3739,
              -32.918
            ],
            [
              -71.4428,
              -32.9226
            ],
            [
              -71.4522,
              -32.8909
            ],
            [
              -71.2962,
              -32.8312
            ]
          ]
        ]
      }
    },
    {
      "type": "Feature",
      "properties": {
        "id": "la-calera",
        "name": "La Calera",
        "days": "Lunes a Viernes",
        "zone": "Interior"
      },
      "geometry": {
        "type": "Polygon",
        "coordinates": [
          [
            [
              -71.1936,
              -32.8148
            ],
            [
              -71.2299,
              -32.789
            ],
            [
              -71.198,
              -32.766
            ],
            [
              -71.0874,
              -32.7538
            ],
            [
              -71.1099,
              -32.7971
            ],
            [
              -71.1801,
              -32.7914
            ],
            [
              -71.1277,
              -32.8453
            ],
            [
              -71.1454,
              -32.8673
            ],
            [
              -71.1936,
              -32.8148
            ]
          ]
        ]
      }
    },
    {
      "type": "Feature",
      "properties": {
        "id": "casablanca",
        "name": "Casablanca",
        "days": "Lunes a Viernes",
        "zone": "Valparaíso"
      },
      "geometry": {
        "type": "MultiPolygon",
        "coordinates": [
          [
            [
              [
                -71.7033,
                -33.1941
              ],
              [
                -71.6981,
                -33.1551
              ],
              [
                -71.6228,
                -33.1589
              ],
              [
                -71.5365,
                -33.2138
              ],
              [
                -71.4107,
                -33.211
              ],
              [
                -71.3675,
                -33.1757
              ],
              [
                -71.3459,
                -33.2042
              ],
              [
                -71.2301,
                -33.2418
              ],
              [
                -71.1955,
                -33.3111
              ],
              [
                -71.2229,
                -33.3731
              ],
              [
                -71.2816,
                -33.4105
              ],
              [
                -71.3433,
                -33.4156
              ],
              [
                -71.3362,
                -33.4558
              ],
              [
                -71.3917,
                -33.4551
              ],
              [
                -71.4373,
                -33.4892
              ],
              [
                -71.593,
                -33.4615
              ],
              [
                -71.6156,
                -33.4412
              ],
              [
                -71.5838,
                -33.3887
              ],
              [
                -71.5474,
                -33.3951
              ],
              [
                -71.527,
                -33.2679
              ],
              [
                -71.5953,
                -33.2519
              ],
              [
                -71.6681,
                -33.2797
              ],
              [
                -71.7033,
                -33.1941
              ]
            ],
            [
              [
                -71.6782,
                -33.263
              ],
              [
                -71.6782,
                -33.263
              ],
              [
                -71.6782,
                -33.263
              ],
              [
                -71.6782,
                -33.263
              ],
              [
                -71.6782,
                -33.263
              ]
            ]
          ],
          [
            [
              [
                -71.7047,
                -33.1907
              ],
              [
                -71.7042,
                -33.1914
              ],
              [
                -71.705,
                -33.1917
              ],
              [
                -71.7051,
                -33.1911
              ],
              [
                -71.7047,
                -33.1907
              ]
            ]
          ]
        ]
      }
    },
    {
      "type": "Feature",
      "properties": {
        "id": "san-antonio",
        "name": "San Antonio",
        "days": "Lunes a Viernes",
        "zone": "Costa Sur"
      },
      "geometry": {
        "type": "Polygon",
        "coordinates": [
          [
            [
              -71.6253,
              -33.6029
            ],
            [
              -71.6275,
              -33.552
            ],
            [
              -71.4108,
              -33.6096
            ],
            [
              -71.3351,
              -33.5768
            ],
            [
              -71.3391,
              -33.6108
            ],
            [
              -71.4378,
              -33.6798
            ],
            [
              -71.3628,
              -33.759
            ],
            [
              -71.4287,
              -33.7891
            ],
            [
              -71.5232,
              -33.7774
            ],
            [
              -71.6253,
              -33.6029
            ]
          ]
        ]
      }
    },
    {
      "type": "Feature",
      "properties": {
        "id": "san-felipe",
        "name": "San Felipe",
        "days": "Lunes a Viernes",
        "zone": "Aconcagua"
      },
      "geometry": {
        "type": "Polygon",
        "coordinates": [
          [
            [
              -70.7982,
              -32.6646
            ],
            [
              -70.7377,
              -32.6955
            ],
            [
              -70.7442,
              -32.7145
            ],
            [
              -70.6636,
              -32.6889
            ],
            [
              -70.684,
              -32.7759
            ],
            [
              -70.6342,
              -32.8006
            ],
            [
              -70.6588,
              -32.8255
            ],
            [
              -70.7125,
              -32.8166
            ],
            [
              -70.7129,
              -32.7869
            ],
            [
              -70.7619,
              -32.8014
            ],
            [
              -70.7366,
              -32.758
            ],
            [
              -70.7664,
              -32.7332
            ],
            [
              -70.8527,
              -32.7714
            ],
            [
              -70.8707,
              -32.7311
            ],
            [
              -70.8254,
              -32.6474
            ],
            [
              -70.7982,
              -32.6646
            ]
          ]
        ]
      }
    },
    {
      "type": "Feature",
      "properties": {
        "id": "los-andes",
        "name": "Los Andes",
        "days": "Lunes a Viernes",
        "zone": "Aconcagua"
      },
      "geometry": {
        "type": "Polygon",
        "coordinates": [
          [
            [
              -70.0921,
              -33.0486
            ],
            [
              -70.1558,
              -33.1131
            ],
            [
              -70.1996,
              -33.111
            ],
            [
              -70.2439,
              -33.1873
            ],
            [
              -70.2641,
              -33.1834
            ],
            [
              -70.2719,
              -33.1315
            ],
            [
              -70.3852,
              -33.0935
            ],
            [
              -70.4209,
              -33.025
            ],
            [
              -70.4066,
              -33.0011
            ],
            [
              -70.5074,
              -32.8811
            ],
            [
              -70.6591,
              -32.8186
            ],
            [
              -70.633,
              -32.8006
            ],
            [
              -70.5845,
              -32.8349
            ],
            [
              -70.4102,
              -32.8655
            ],
            [
              -70.3628,
              -32.91
            ],
            [
              -70.1746,
              -32.7721
            ],
            [
              -70.1616,
              -32.7401
            ],
            [
              -70.151,
              -32.7265
            ],
            [
              -70.1477,
              -32.725
            ],
            [
              -70.1461,
              -32.7249
            ],
            [
              -70.1451,
              -32.725
            ],
            [
              -70.1078,
              -32.8007
            ],
            [
              -69.9893,
              -32.8982
            ],
            [
              -70.0198,
              -33.0073
            ],
            [
              -70.0921,
              -33.0486
            ]
          ]
        ]
      }
    }
  ]
}